GOES 10                 
1 24786U 97019A   09188.32338398 -.00000284  00000-0  10000-3 0  9919
2 24786   3.6834  74.3509 0002113  45.3701 221.9345  1.00278390 44709
SARSAT 7 (NOAA 15)      
1 25338U 98030A   09188.27824641  .00000220  00000-0  11277-3 0  9963
2 25338  98.5837 177.0446 0010695   5.8680 354.2631 14.24771970579636
GOES 11                 
1 26352U 00022A   09188.24998679  .00000093  00000-0  10000-3 0  3914
2 26352   0.4316 262.7401 0002094 270.6697  66.3605  1.00269690 33609
SARSAT 8 (NOAA 16)      
1 26536U 00055A   09188.26764491  .00000263  00000-0  16767-3 0  4735
2 26536  99.1751 192.4190 0009935 221.0482 138.9943 14.12526452453132
GPS BIIR-07 (DASS)      
1 26690U 01004A   09187.37155823 -.00000042  00000-0  10000-3 0  3802
2 26690  53.9627 278.9853 0107313 222.9476 136.2631  2.00571410 61814
GOES 12                 
1 26871U 01031A   09188.36476079 -.00000248  00000-0  10000-3 0  1291
2 26871   0.0768  96.4092 0004792 350.9196 254.7567  1.00270868 29203
SARSAT 9 (NOAA 17)      
1 27453U 02032A   09188.37630502 -.00000046  00000-0 -16023-5 0  4769
2 27453  98.4825 246.7499 0012690  67.8950 292.3576 14.24074388365620
MSG-1                   
1 27509U 02040B   09185.70041354  .00000065  00000-0  10000-3 0  3445
2 27509   0.6463  35.7381 0006101  82.2941  66.3362  1.00273052 25176
GPS BIIR-08 (DASS)      
1 27663U 03005A   09187.72071981 -.00000039  00000-0  10000-3 0  7469
2 27663  55.5104  98.6165 0054271 339.3698  20.4166  2.00575497 47178
INSAT 3A                
1 27714U 03013A   09187.90101683 -.00000255  00000-0  10000-3 0  6816
2 27714   0.0483 260.5121 0005940 186.4607 255.8820  1.00270603 22895
GPS BIIR-11 (DASS)      
1 28190U 04009A   09187.85893479  .00000023  00000-0  10000-3 0  2005
2 28190  54.8635 161.5394 0057655 338.7770  20.9463  2.00569828 38842
GPS BIIR-12 (DASS)      
1 28361U 04023A   09187.64493937 -.00000105  00000-0  10000-3 0   261
2 28361  55.5899 337.6637 0062227 168.6145 191.5234  2.00572574 36925
GPS BIIR-13 (DASS)      
1 28474U 04045A   09187.64111854  .00000061  00000-0  10000-3 0  9040
2 28474  53.9262 216.5487 0090650 164.7102 195.6335  2.00563592 34289
SARSAT 10 (NOAA 18)     
1 28654U 05018A   09188.39472881  .00000344  00000-0  21477-3 0  9677
2 28654  98.9066 131.4782 0013591 308.9215  51.0733 14.11270035212804
GPS IIR-14M (DASS)      
1 28874U 05038A   09188.99038388  .00000023  00000-0  10000-3 0  1664
2 28874  54.9959 158.2871 0046247 211.9313 147.7446  2.00560132 27738
MSG-2                   
1 28912U 05049B   09186.15181184  .00000001  00000-0  10000-3 0  5321
2 28912   0.4085 265.6981 0001236 174.5694 257.8028  1.00276212 13025
GOES 13                 
1 29155U 06018A   09188.48995696 -.00000083  00000-0  10000-3 0  6655
2 29155   0.1129 231.7044 0001760 304.5833 180.1200  1.00271738 11450
SARSAT 11 (METOP-A)     
1 29499U 06044A   09188.45261153 -.00000171  00000-0 -58345-4 0  8506
2 29499  98.6859 248.2929 0001021  94.1814 265.9490 14.21495857140890
GPS IIR-16M (DASS)      
1 29601U 06052A   09188.05266382 -.00000036  00000-0  10000-3 0  5001
2 29601  55.4215  97.6298 0034073 319.1293  40.6236  2.00568064 19325
GPS IIR-17M (DASS)      
1 32260U 07047A   09187.84985815 -.00000105  00000-0  00000+0 0  2689
2 32260  54.7919 336.4800 0015791 326.0478  33.8430  2.00568889 12715
GPS IIR-18M (DASS)      
1 32384U 07062A   09187.18359343  .00000019  00000-0  10000-3 0  2937
2 32384  55.0068 158.8319 0036410 282.9126  76.6493  2.00564815 11429
SARSAT 12 (NOAA 19)     
1 33591U 09005A   09188.45002699 -.00000091  00000-0 -26599-4 0  1692
2 33591  98.7456 133.6848 0013903 181.8736 178.2377 14.10969253 21294
